{
    "links": {
        "self": "http://www.neowsapp.com/rest/v1/neo/3754436?api_key=iIulBulltgU6a56xZRHN4H3l9WmuAYTsLGpBGhQ2"
    },
    "id": "3754436",
    "neo_reference_id": "3754436",
    "name": "(2016 NK15)",
    "designation": "2016 NK15",
    "nasa_jpl_url": "http://ssd.jpl.nasa.gov/sbdb.cgi?sstr=3754436",
    "absolute_magnitude_h": 22.2,
    "estimated_diameter": {
        "kilometers": {
            "estimated_diameter_min": 0.096506147,
            "estimated_diameter_max": 0.2157943048
        },
        "meters": {
            "estimated_diameter_min": 96.5061469579,
            "estimated_diameter_max": 215.7943048444
        },
        "miles": {
            "estimated_diameter_min": 0.059966121,
            "estimated_diameter_max": 0.134088323
        },
        "feet": {
            "estimated_diameter_min": 316.6212271853,
            "estimated_diameter_max": 707.9865871058
        }
    },
    "is_potentially_hazardous_asteroid": false,
    "close_approach_data": [
        {
            "close_approach_date": "2002-02-10",
            "close_approach_date_full": "2002-Feb-10 08:26",
            "epoch_date_close_approach": 1013329560000,
            "relative_velocity": {
                "kilometers_per_second": "3.9461726826",
                "kilometers_per_hour": "14206.2216572335",
                "miles_per_hour": "8827.1936736293"
            },
            "miss_distance": {
                "astronomical": "1.484618845",
                "lunar": "577.516730705",
                "kilometers": "222095816.97386015",
                "miles": "138003941.33976407"
            },
            "orbiting_body": "Juptr"
        },
        {
            "close_approach_date": "2016-06-24",
            "close_approach_date_full": "2016-Jun-24 04:19",
            "epoch_date_close_approach": 1466741940000,
            "relative_velocity": {
                "kilometers_per_second": "6.1118914693",
                "kilometers_per_hour": "22002.809289645",
                "miles_per_hour": "13671.6900277797"
            },
            "miss_distance": {
                "astronomical": "0.1878401672",
                "lunar": "73.0698250408",
                "kilometers": "28100488.913563864",
                "miles": "17460834.1412507632"
            },
            "orbiting_body": "Earth"
        },
        {
            "close_approach_date": "2057-07-01",
            "close_approach_date_full": "2057-Jul-01 20:42",
            "epoch_date_close_approach": 2761245720000,
            "relative_velocity": {
                "kilometers_per_second": "5.8550820562",
                "kilometers_per_hour": "21078.2954024624",
                "miles_per_hour": "13097.2330516022"
            },
            "miss_distance": {
                "astronomical": "0.2185661226",
                "lunar": "85.0222216914",
                "kilometers": "32697026.395118862",
                "miles": "20316990.0905778156"
            },
            "orbiting_body": "Earth"
        }
    ],
    "orbital_data": {
        "orbit_id": "20",
        "orbit_determination_date": "2017-04-06 08:25:09",
        "first_observation_date": "2016-07-05",
        "last_observation_date": "2016-09-03",
        "data_arc_in_days": 60,
        "observations_used": 106,
        "orbit_uncertainty": "5",
        "minimum_orbit_intersection": ".164284",
        "jupiter_tisserand_invariant": "3.211",
        "epoch_osculation": "2459000.5",
        "eccentricity": ".5382992098914869",
        "semi_major_axis": "2.556661290499311",
        "inclination": "5.449817150346058",
        "ascending_node_longitude": "271.5666473619511",
        "orbital_period": "1493.166441988808",
        "perihelion_distance": "1.180412537863383",
        "perihelion_argument": "5.719445912705797",
        "aphelion_distance": "3.93291004313524",
        "perihelion_time": "2459057.602306729257",
        "mean_anomaly": "346.2327267446809",
        "mean_motion": ".2410983731461991",
        "equinox": "J2000",
        "orbit_class": {
            "orbit_class_type": "AMO",
            "orbit_class_description": "Near-Earth asteroid orbits similar to that of 1221 Amor",
            "orbit_class_range": "1.017 AU < q (perihelion) < 1.3 AU"
        }
    },
    "is_sentry_object": false
}